{
  "type": "FeatureCollection",
  "features": [
    {
      "type": "Feature",
      "properties": {
        "norad_id": 58647,
        "name": "TIANMU-1 13",
        "group": "weather",
        "lat": -63.930112079172126,
        "lon": 168.96204522021372,
        "alt_km": 496.0792941600739,
        "timestamp": "2025-12-10T14:53:36.769754+00:00",
        "meta_object_name": "TIANMU-1 13",
        "meta_object_id": "2023-205C",
        "meta_epoch": "2025-12-10T07:31:15.028896",
        "meta_mean_motion": 15.24475523,
        "meta_eccentricity": 0.00060415,
        "meta_inclination": 97.3626,
        "meta_ra_of_asc_node": 3.9852,
        "meta_arg_of_pericenter": 278.4238,
        "meta_mean_anomaly": 81.6315,
        "meta_ephemeris_type": 0,
        "meta_classification_type": "U",
        "meta_norad_cat_id": 58647,
        "meta_element_set_no": 999,
        "meta_rev_at_epoch": 10870,
        "meta_bstar": 0.0003702827,
        "meta_mean_motion_dot": 9.033e-05,
        "meta_mean_motion_ddot": 0,
        "tle_line1": "1 58647U 23205C   25344.31336839  .00009033  00000+0  37028-3 0  9993",
        "tle_line2": "2 58647  97.3626   3.9852 0006041 278.4238  81.6315 15.24475523108705"
      },
      "geometry": {
        "type": "Point",
        "coordinates": [
          168.96204522021372,
          -63.930112079172126
        ]
      }
    },
    {
      "type": "Feature",
      "properties": {
        "norad_id": 58648,
        "name": "TIANMU-1 14",
        "group": "weather",
        "lat": -23.77614994234162,
        "lon": 6.900344807528076,
        "alt_km": 495.17573883079694,
        "timestamp": "2025-12-10T14:53:36.769770+00:00",
        "meta_object_name": "TIANMU-1 14",
        "meta_object_id": "2023-205D",
        "meta_epoch": "2025-12-10T07:07:18.413760",
        "meta_mean_motion": 15.24457896,
        "meta_eccentricity": 0.00068992,
        "meta_inclination": 97.3557,
        "meta_ra_of_asc_node": 3.3199,
        "meta_arg_of_pericenter": 283.6704,
        "meta_mean_anomaly": 76.3765,
        "meta_ephemeris_type": 0,
        "meta_classification_type": "U",
        "meta_norad_cat_id": 58648,
        "meta_element_set_no": 999,
        "meta_rev_at_epoch": 10870,
        "meta_bstar": 0.00035610001,
        "meta_mean_motion_dot": 8.681e-05,
        "meta_mean_motion_ddot": 0,
        "tle_line1": "1 58648U 23205D   25344.29674090  .00008681  00000+0  35610-3 0  9998",
        "tle_line2": "2 58648  97.3557   3.3199 0006899 283.6704  76.3765 15.24457896108707"
      },
      "geometry": {
        "type": "Point",
        "coordinates": [
          6.900344807528076,
          -23.77614994234162
        ]
      }
    },
    {
      "type": "Feature",
      "properties": {
        "norad_id": 58660,
        "name": "TIANMU-1 19",
        "group": "weather",
        "lat": -25.427170443832438,
        "lon": -87.89947560103589,
        "alt_km": 486.6534681067342,
        "timestamp": "2025-12-10T14:53:36.769786+00:00",
        "meta_object_name": "TIANMU-1 19",
        "meta_object_id": "2023-208A",
        "meta_epoch": "2025-12-10T06:08:11.941728",
        "meta_mean_motion": 15.27776056,
        "meta_eccentricity": 0.00040487,
        "meta_inclination": 97.4388,
        "meta_ra_of_asc_node": 95.2978,
        "meta_arg_of_pericenter": 264.1689,
        "meta_mean_anomaly": 95.9089,
        "meta_ephemeris_type": 0,
        "meta_classification_type": "U",
        "meta_norad_cat_id": 58660,
        "meta_element_set_no": 999,
        "meta_rev_at_epoch": 10844,
        "meta_bstar": 0.00050893358,
        "meta_mean_motion_dot": 0.00013747,
        "meta_mean_motion_ddot": 0,
        "tle_line1": "1 58660U 23208A   25344.25569377  .00013747  00000+0  50893-3 0  9991",
        "tle_line2": "2 58660  97.4388  95.2978 0004048 264.1689  95.9089 15.27776056108441"
      },
      "geometry": {
        "type": "Point",
        "coordinates": [
          -87.89947560103589,
          -25.427170443832438
        ]
      }
    },
    {
      "type": "Feature",
      "properties": {
        "norad_id": 58661,
        "name": "TIANMU-1 20",
        "group": "weather",
        "lat": -82.52538631776656,
        "lon": -179.61631140095454,
        "alt_km": 481.93314150664355,
        "timestamp": "2025-12-10T14:53:36.769802+00:00",
        "meta_object_name": "TIANMU-1 20",
        "meta_object_id": "2023-208B",
        "meta_epoch": "2025-12-10T07:25:46.972416",
        "meta_mean_motion": 15.28969152,
        "meta_eccentricity": 0.00062957,
        "meta_inclination": 97.4326,
        "meta_ra_of_asc_node": 95.7967,
        "meta_arg_of_pericenter": 276.3379,
        "meta_mean_anomaly": 83.7143,
        "meta_ephemeris_type": 0,
        "meta_classification_type": "U",
        "meta_norad_cat_id": 58661,
        "meta_element_set_no": 999,
        "meta_rev_at_epoch": 10852,
        "meta_bstar": 0.00047958823,
        "meta_mean_motion_dot": 0.00013435,
        "meta_mean_motion_ddot": 0,
        "tle_line1": "1 58661U 23208B   25344.30957144  .00013435  00000+0  47959-3 0  9994",
        "tle_line2": "2 58661  97.4326  95.7967 0006295 276.3379  83.7143 15.28969152108521"
      },
      "geometry": {
        "type": "Point",
        "coordinates": [
          -179.61631140095454,
          -82.52538631776656
        ]
      }
    },
    {
      "type": "Feature",
      "properties": {
        "norad_id": 58662,
        "name": "TIANMU-1 21",
        "group": "weather",
        "lat": -74.5246253495739,
        "lon": -110.14723690254213,
        "alt_km": 474.82206317588134,
        "timestamp": "2025-12-10T14:53:36.769817+00:00",
        "meta_object_name": "TIANMU-1 21",
        "meta_object_id": "2023-208C",
        "meta_epoch": "2025-12-10T07:30:16.261344",
        "meta_mean_motion": 15.3146707,
        "meta_eccentricity": 0.00058704,
        "meta_inclination": 97.4374,
        "meta_ra_of_asc_node": 97.6974,
        "meta_arg_of_pericenter": 270.4272,
        "meta_mean_anomaly": 89.6297,
        "meta_ephemeris_type": 0,
        "meta_classification_type": "U",
        "meta_norad_cat_id": 58662,
        "meta_element_set_no": 999,
        "meta_rev_at_epoch": 10862,
        "meta_bstar": 0.00052081884,
        "meta_mean_motion_dot": 0.00015771,
        "meta_mean_motion_ddot": 0,
        "tle_line1": "1 58662U 23208C   25344.31268821  .00015771  00000+0  52082-3 0  9991",
        "tle_line2": "2 58662  97.4374  97.6974 0005870 270.4272  89.6297 15.31467070108621"
      },
      "geometry": {
        "type": "Point",
        "coordinates": [
          -110.14723690254213,
          -74.5246253495739
        ]
      }
    },
    {
      "type": "Feature",
      "properties": {
        "norad_id": 58663,
        "name": "TIANMU-1 22",
        "group": "weather",
        "lat": -28.45976392251651,
        "lon": -88.33910966964122,
        "alt_km": 489.0889297492231,
        "timestamp": "2025-12-10T14:53:36.769833+00:00",
        "meta_object_name": "TIANMU-1 22",
        "meta_object_id": "2023-208D",
        "meta_epoch": "2025-12-10T06:07:19.160832",
        "meta_mean_motion": 15.27535635,
        "meta_eccentricity": 0.00027465,
        "meta_inclination": 97.4382,
        "meta_ra_of_asc_node": 95.3573,
        "meta_arg_of_pericenter": 299.8396,
        "meta_mean_anomaly": 60.257,
        "meta_ephemeris_type": 0,
        "meta_classification_type": "U",
        "meta_norad_cat_id": 58663,
        "meta_element_set_no": 999,
        "meta_rev_at_epoch": 10845,
        "meta_bstar": 0.00047305853,
        "meta_mean_motion_dot": 0.00012677,
        "meta_mean_motion_ddot": 0,
        "tle_line1": "1 58663U 23208D   25344.25508288  .00012677  00000+0  47306-3 0  9994",
        "tle_line2": "2 58663  97.4382  95.3573 0002746 299.8396  60.2570 15.27535635108450"
      },
      "geometry": {
        "type": "Point",
        "coordinates": [
          -88.33910966964122,
          -28.45976392251651
        ]
      }
    },
    {
      "type": "Feature",
      "properties": {
        "norad_id": 58700,
        "name": "TIANMU-1 15",
        "group": "weather",
        "lat": 0.21152463556430318,
        "lon": 166.07021345706337,
        "alt_km": 492.7400143447958,
        "timestamp": "2025-12-10T14:53:36.769854+00:00",
        "meta_object_name": "TIANMU-1 15",
        "meta_object_id": "2024-004A",
        "meta_epoch": "2025-12-10T07:01:00.522624",
        "meta_mean_motion": 15.2462703,
        "meta_eccentricity": 0.0005288,
        "meta_inclination": 97.4631,
        "meta_ra_of_asc_node": 165.771,
        "meta_arg_of_pericenter": 309.0069,
        "meta_mean_anomaly": 51.0698,
        "meta_ephemeris_type": 0,
        "meta_classification_type": "U",
        "meta_norad_cat_id": 58700,
        "meta_element_set_no": 999,
        "meta_rev_at_epoch": 10697,
        "meta_bstar": 0.00038805996,
        "meta_mean_motion_dot": 9.511e-05,
        "meta_mean_motion_ddot": 0,
        "tle_line1": "1 58700U 24004A   25344.29236716  .00009511  00000+0  38806-3 0  9997",
        "tle_line2": "2 58700  97.4631 165.7710 0005288 309.0069  51.0698 15.24627030106971"
      },
      "geometry": {
        "type": "Point",
        "coordinates": [
          166.07021345706337,
          0.21152463556430318
        ]
      }
    }
  ]
}